[{"OBJECT_NAME":"ONEWEB-0428","OBJECT_ID":"2022-012H","EPOCH":"2025-12-14T07:15:41.297184","MEAN_MOTION":13.10373116,"ECCENTRICITY":0.00017136,"INCLINATION":87.881,"RA_OF_ASC_NODE":73.1364,"ARG_OF_PERICENTER":103,"MEAN_ANOMALY":257.1319,"EPHEMERIS_TYPE":0,"CLASSIFICATION_TYPE":"U","NORAD_CAT_ID":51629,"ELEMENT_SET_NO":999,"REV_AT_EPOCH":18507,"BSTAR":0.0016644385,"MEAN_MOTION_DOT":5.94e-6,"MEAN_MOTION_DDOT":0},{"OBJECT_NAME":"ONEWEB-0431","OBJECT_ID":"2022-012J","EPOCH":"2025-12-14T06:32:25.391040","MEAN_MOTION":13.10373287,"ECCENTRICITY":0.00013717,"INCLINATION":87.8816,"RA_OF_ASC_NODE":73.1228,"ARG_OF_PERICENTER":81.3541,"MEAN_ANOMALY":278.7742,"EPHEMERIS_TYPE":0,"CLASSIFICATION_TYPE":"U","NORAD_CAT_ID":51630,"ELEMENT_SET_NO":999,"REV_AT_EPOCH":18512,"BSTAR":-0.0017989461,"MEAN_MOTION_DOT":-6.15e-6,"MEAN_MOTION_DDOT":0},{"OBJECT_NAME":"ONEWEB-0434","OBJECT_ID":"2022-012K","EPOCH":"2025-12-14T05:59:23.588448","MEAN_MOTION":13.10372979,"ECCENTRICITY":0.00020501,"INCLINATION":87.8803,"RA_OF_ASC_NODE":73.1629,"ARG_OF_PERICENTER":122.9124,"MEAN_ANOMALY":237.2201,"EPHEMERIS_TYPE":0,"CLASSIFICATION_TYPE":"U","NORAD_CAT_ID":51631,"ELEMENT_SET_NO":999,"REV_AT_EPOCH":18510,"BSTAR":3.3498864e-5,"MEAN_MOTION_DOT":2.4e-7,"MEAN_MOTION_DDOT":0},{"OBJECT_NAME":"ONEWEB-0435","OBJECT_ID":"2022-012L","EPOCH":"2025-12-14T06:11:07.370880","MEAN_MOTION":13.1037107,"ECCENTRICITY":0.00019446,"INCLINATION":87.8806,"RA_OF_ASC_NODE":73.1514,"ARG_OF_PERICENTER":94.726,"MEAN_ANOMALY":265.4089,"EPHEMERIS_TYPE":0,"CLASSIFICATION_TYPE":"U","NORAD_CAT_ID":51632,"ELEMENT_SET_NO":999,"REV_AT_EPOCH":18509,"BSTAR":-0.0010707569,"MEAN_MOTION_DOT":-3.61e-6,"MEAN_MOTION_DDOT":0},{"OBJECT_NAME":"ONEWEB-0436","OBJECT_ID":"2022-012M","EPOCH":"2025-12-14T03:44:18.772512","MEAN_MOTION":13.17647989,"ECCENTRICITY":0.00018547,"INCLINATION":87.9118,"RA_OF_ASC_NODE":42.6268,"ARG_OF_PERICENTER":92.8623,"MEAN_ANOMALY":267.272,"EPHEMERIS_TYPE":0,"CLASSIFICATION_TYPE":"U","NORAD_CAT_ID":51633,"ELEMENT_SET_NO":999,"REV_AT_EPOCH":18931,"BSTAR":-5.0887101e-5,"MEAN_MOTION_DOT":-7.0e-8,"MEAN_MOTION_DDOT":0},{"OBJECT_NAME":"ONEWEB-0438","OBJECT_ID":"2022-012N","EPOCH":"2025-12-14T07:37:11.369280","MEAN_MOTION":13.10369284,"ECCENTRICITY":0.00017443,"INCLINATION":87.8808,"RA_OF_ASC_NODE":73.1403,"ARG_OF_PERICENTER":111.8575,"MEAN_ANOMALY":248.2738,"EPHEMERIS_TYPE":0,"CLASSIFICATION_TYPE":"U","NORAD_CAT_ID":51634,"ELEMENT_SET_NO":999,"REV_AT_EPOCH":18513,"BSTAR":0.0013693272,"MEAN_MOTION_DOT":4.91e-6,"MEAN_MOTION_DDOT":0},{"OBJECT_NAME":"ONEWEB-0439","OBJECT_ID":"2022-012P","EPOCH":"2025-12-14T07:41:58.366752","MEAN_MOTION":13.10370665,"ECCENTRICITY":0.00017585,"INCLINATION":87.8805,"RA_OF_ASC_NODE":73.1282,"ARG_OF_PERICENTER":104.6514,"MEAN_ANOMALY":255.4809,"EPHEMERIS_TYPE":0,"CLASSIFICATION_TYPE":"U","NORAD_CAT_ID":51635,"ELEMENT_SET_NO":999,"REV_AT_EPOCH":18511,"BSTAR":0.00079918904,"MEAN_MOTION_DOT":2.92e-6,"MEAN_MOTION_DDOT":0},{"OBJECT_NAME":"ONEWEB-0442","OBJECT_ID":"2022-012Q","EPOCH":"2025-12-14T05:22:42.475872","MEAN_MOTION":13.17651185,"ECCENTRICITY":0.00016548,"INCLINATION":87.9108,"RA_OF_ASC_NODE":42.6606,"ARG_OF_PERICENTER":122.0861,"MEAN_ANOMALY":238.0432,"EPHEMERIS_TYPE":0,"CLASSIFICATION_TYPE":"U","NORAD_CAT_ID":51636,"ELEMENT_SET_NO":999,"REV_AT_EPOCH":18931,"BSTAR":2.7980201e-5,"MEAN_MOTION_DOT":2.4e-7,"MEAN_MOTION_DDOT":0},{"OBJECT_NAME":"ONEWEB-0443","OBJECT_ID":"2022-012R","EPOCH":"2025-12-14T04:01:19.306848","MEAN_MOTION":13.17648424,"ECCENTRICITY":0.0002035,"INCLINATION":87.9104,"RA_OF_ASC_NODE":42.6768,"ARG_OF_PERICENTER":106.1057,"MEAN_ANOMALY":254.0299,"EPHEMERIS_TYPE":0,"CLASSIFICATION_TYPE":"U","NORAD_CAT_ID":51637,"ELEMENT_SET_NO":999,"REV_AT_EPOCH":18935,"BSTAR":-1.8044688e-5,"MEAN_MOTION_DOT":6.0e-8,"MEAN_MOTION_DDOT":0},{"OBJECT_NAME":"ONEWEB-0444","OBJECT_ID":"2022-012S","EPOCH":"2025-12-14T07:27:38.285856","MEAN_MOTION":13.10371235,"ECCENTRICITY":0.00017268,"INCLINATION":87.8806,"RA_OF_ASC_NODE":73.1288,"ARG_OF_PERICENTER":103.3823,"MEAN_ANOMALY":256.7497,"EPHEMERIS_TYPE":0,"CLASSIFICATION_TYPE":"U","NORAD_CAT_ID":51638,"ELEMENT_SET_NO":999,"REV_AT_EPOCH":18512,"BSTAR":0.0018138555,"MEAN_MOTION_DOT":6.46e-6,"MEAN_MOTION_DDOT":0},{"OBJECT_NAME":"ONEWEB-0445","OBJECT_ID":"2022-012T","EPOCH":"2025-12-14T07:58:41.226240","MEAN_MOTION":13.10369664,"ECCENTRICITY":0.00014945,"INCLINATION":87.8822,"RA_OF_ASC_NODE":73.0921,"ARG_OF_PERICENTER":107.6484,"MEAN_ANOMALY":252.4806,"EPHEMERIS_TYPE":0,"CLASSIFICATION_TYPE":"U","NORAD_CAT_ID":51639,"ELEMENT_SET_NO":999,"REV_AT_EPOCH":18513,"BSTAR":-0.00084274594,"MEAN_MOTION_DOT":-2.82e-6,"MEAN_MOTION_DDOT":0},{"OBJECT_NAME":"ONEWEB-0446","OBJECT_ID":"2022-012U","EPOCH":"2025-12-14T07:25:15.006144","MEAN_MOTION":13.10371606,"ECCENTRICITY":0.00014842,"INCLINATION":87.8807,"RA_OF_ASC_NODE":73.1459,"ARG_OF_PERICENTER":104.0193,"MEAN_ANOMALY":256.1099,"EPHEMERIS_TYPE":0,"CLASSIFICATION_TYPE":"U","NORAD_CAT_ID":51640,"ELEMENT_SET_NO":999,"REV_AT_EPOCH":18511,"BSTAR":0.0016878483,"MEAN_MOTION_DOT":6.02e-6,"MEAN_MOTION_DDOT":0},{"OBJECT_NAME":"ONEWEB-0448","OBJECT_ID":"2022-012V","EPOCH":"2025-12-14T03:52:30.789408","MEAN_MOTION":13.1037051,"ECCENTRICITY":0.00017271,"INCLINATION":87.8805,"RA_OF_ASC_NODE":73.1748,"ARG_OF_PERICENTER":105.1484,"MEAN_ANOMALY":254.9834,"EPHEMERIS_TYPE":0,"CLASSIFICATION_TYPE":"U","NORAD_CAT_ID":51641,"ELEMENT_SET_NO":999,"REV_AT_EPOCH":18506,"BSTAR":0.0016976151,"MEAN_MOTION_DOT":6.05e-6,"MEAN_MOTION_DDOT":0},{"OBJECT_NAME":"ONEWEB-0449","OBJECT_ID":"2022-012W","EPOCH":"2025-12-13T22:29:48.460416","MEAN_MOTION":13.10370653,"ECCENTRICITY":0.00019007,"INCLINATION":87.8812,"RA_OF_ASC_NODE":73.1918,"ARG_OF_PERICENTER":118.6912,"MEAN_ANOMALY":241.4407,"EPHEMERIS_TYPE":0,"CLASSIFICATION_TYPE":"U","NORAD_CAT_ID":51642,"ELEMENT_SET_NO":999,"REV_AT_EPOCH":18504,"BSTAR":0.0010808239,"MEAN_MOTION_DOT":3.9e-6,"MEAN_MOTION_DDOT":0},{"OBJECT_NAME":"ONEWEB-0451","OBJECT_ID":"2022-012X","EPOCH":"2025-12-14T03:39:26.535744","MEAN_MOTION":13.17647521,"ECCENTRICITY":0.0001822,"INCLINATION":87.9119,"RA_OF_ASC_NODE":42.6226,"ARG_OF_PERICENTER":103.2955,"MEAN_ANOMALY":256.838,"EPHEMERIS_TYPE":0,"CLASSIFICATION_TYPE":"U","NORAD_CAT_ID":51643,"ELEMENT_SET_NO":999,"REV_AT_EPOCH":18929,"BSTAR":-8.7465485e-5,"MEAN_MOTION_DOT":-2.1e-7,"MEAN_MOTION_DDOT":0},{"OBJECT_NAME":"ONEWEB-0452","OBJECT_ID":"2022-012Y","EPOCH":"2025-12-14T05:26:22.290432","MEAN_MOTION":13.17647815,"ECCENTRICITY":0.00020505,"INCLINATION":87.911,"RA_OF_ASC_NODE":42.6624,"ARG_OF_PERICENTER":105.067,"MEAN_ANOMALY":255.0688,"EPHEMERIS_TYPE":0,"CLASSIFICATION_TYPE":"U","NORAD_CAT_ID":51644,"ELEMENT_SET_NO":999,"REV_AT_EPOCH":18931,"BSTAR":8.295566e-5,"MEAN_MOTION_DOT":4.5e-7,"MEAN_MOTION_DDOT":0},{"OBJECT_NAME":"ONEWEB-0456","OBJECT_ID":"2022-012AA","EPOCH":"2025-12-14T06:03:57.419424","MEAN_MOTION":13.1037048,"ECCENTRICITY":0.00017404,"INCLINATION":87.882,"RA_OF_ASC_NODE":73.0986,"ARG_OF_PERICENTER":99.1675,"MEAN_ANOMALY":260.965,"EPHEMERIS_TYPE":0,"CLASSIFICATION_TYPE":"U","NORAD_CAT_ID":51646,"ELEMENT_SET_NO":999,"REV_AT_EPOCH":18512,"BSTAR":-0.0003248776,"MEAN_MOTION_DOT":-1.01e-6,"MEAN_MOTION_DDOT":0}]
