ONEWEB-0428             
1 51629U 22012H   25348.30256131  .00000594  00000+0  16644-2 0  9993
2 51629  87.8810  73.1364 0001713 103.0000 257.1319 13.10373116185072
ONEWEB-0431             
1 51630U 22012J   25348.27251610 -.00000615  00000+0 -17989-2 0  9997
2 51630  87.8816  73.1228 0001371  81.3541 278.7742 13.10373287185121
ONEWEB-0434             
1 51631U 22012K   25348.24957857  .00000024  00000+0  33499-4 0  9999
2 51631  87.8803  73.1629 0002050 122.9124 237.2201 13.10372979185102
ONEWEB-0435             
1 51632U 22012L   25348.25772420 -.00000361  00000+0 -10708-2 0  9994
2 51632  87.8806  73.1514 0001944  94.7260 265.4089 13.10371070185093
ONEWEB-0436             
1 51633U 22012M   25348.15577283 -.00000007  00000+0 -50887-4 0  9995
2 51633  87.9118  42.6268 0001854  92.8623 267.2720 13.17647989189313
ONEWEB-0438             
1 51634U 22012N   25348.31749270  .00000491  00000+0  13693-2 0  9998
2 51634  87.8808  73.1403 0001744 111.8575 248.2738 13.10369284185131
ONEWEB-0439             
1 51635U 22012P   25348.32081443  .00000292  00000+0  79919-3 0  9994
2 51635  87.8805  73.1282 0001758 104.6514 255.4809 13.10370665185114
ONEWEB-0442             
1 51636U 22012Q   25348.22410273  .00000024  00000+0  27980-4 0  9996
2 51636  87.9108  42.6606 0001654 122.0861 238.0432 13.17651185189318
ONEWEB-0443             
1 51637U 22012R   25348.16758457  .00000006  00000+0 -18045-4 0  9992
2 51637  87.9104  42.6768 0002035 106.1057 254.0299 13.17648424189353
ONEWEB-0444             
1 51638U 22012S   25348.31085979  .00000646  00000+0  18139-2 0  9993
2 51638  87.8806  73.1288 0001726 103.3823 256.7497 13.10371235185120
ONEWEB-0445             
1 51639U 22012T   25348.33242160 -.00000282  00000+0 -84275-3 0  9996
2 51639  87.8822  73.0921 0001494 107.6484 252.4806 13.10369664185135
ONEWEB-0446             
1 51640U 22012U   25348.30920146  .00000602  00000+0  16878-2 0  9999
2 51640  87.8807  73.1459 0001484 104.0193 256.1099 13.10371606185116
ONEWEB-0448             
1 51641U 22012V   25348.16146747  .00000605  00000+0  16976-2 0  9993
2 51641  87.8805  73.1748 0001727 105.1484 254.9834 13.10370510185061
ONEWEB-0449             
1 51642U 22012W   25347.93736644  .00000390  00000+0  10808-2 0  9998
2 51642  87.8812  73.1918 0001900 118.6912 241.4407 13.10370653185040
ONEWEB-0451             
1 51643U 22012X   25348.15239046 -.00000021  00000+0 -87465-4 0  9996
2 51643  87.9119  42.6226 0001822 103.2955 256.8380 13.17647521189294
ONEWEB-0452             
1 51644U 22012Y   25348.22664688  .00000045  00000+0  82956-4 0  9993
2 51644  87.9110  42.6624 0002050 105.0670 255.0688 13.17647815189317
ONEWEB-0456             
1 51646U 22012AA  25348.25274791 -.00000101  00000+0 -32488-3 0  9999
2 51646  87.8820  73.0986 0001740  99.1675 260.9650 13.10370480185121
